[
    {
        "Altitude(m)": 590482.4382857,
        "Argument of Periapsis(deg)": -0.015068773855314936,
        "Eccentricity": 0.0,
        "Inclination(deg)": 97.0,
        "Latitude(deg)": -74.1042228376355,
        "Longitude(deg)": -76.16101343913286,
        "Mean Anomaly(deg)": 284.4577955127916,
        "RAAN(deg)": 0.003964702412340513,
        "Satellite Name": "Starlink Shell 3 1626",
        "Satellite Number": 1626,
        "Semi-Major Axis(m)": 6938478.169268562,
        "Time(s)": 380
    },
    {
        "Altitude(m)": 590366.2172392325,
        "Argument of Periapsis(deg)": -0.015465320535717962,
        "Eccentricity": 0.0,
        "Inclination(deg)": 97.0,
        "Latitude(deg)": -73.54567469948375,
        "Longitude(deg)": -77.17204369884398,
        "Mean Anomaly(deg)": 285.08327171049666,
        "RAAN(deg)": 0.0040690366863494745,
        "Satellite Name": "Starlink Shell 3 1626",
        "Satellite Number": 1626,
        "Semi-Major Axis(m)": 6938478.169268562,
        "Time(s)": 390
    },
    {
        "Altitude(m)": 590245.4753221849,
        "Argument of Periapsis(deg)": -0.015861867216120987,
        "Eccentricity": 0.0,
        "Inclination(deg)": 97.0,
        "Latitude(deg)": -72.98291503698655,
        "Longitude(deg)": -78.12096985131782,
        "Mean Anomaly(deg)": 285.7087479082017,
        "RAAN(deg)": 0.004173370960358435,
        "Satellite Name": "Starlink Shell 3 1626",
        "Satellite Number": 1626,
        "Semi-Major Axis(m)": 6938478.169268562,
        "Time(s)": 400
    },
    {
        "Altitude(m)": 590120.2613408729,
        "Argument of Periapsis(deg)": -0.01625841389652401,
        "Eccentricity": 0.0,
        "Inclination(deg)": 97.0,
        "Latitude(deg)": -72.41634204273136,
        "Longitude(deg)": -79.0133560069464,
        "Mean Anomaly(deg)": 286.33422410590674,
        "RAAN(deg)": 0.004277705234367395,
        "Satellite Name": "Starlink Shell 3 1626",
        "Satellite Number": 1626,
        "Semi-Major Axis(m)": 6938478.169268562,
        "Time(s)": 410
    },
    {
        "Altitude(m)": 589990.6259018721,
        "Argument of Periapsis(deg)": -0.016654960576927034,
        "Eccentricity": 0.0,
        "Inclination(deg)": 97.0,
        "Latitude(deg)": -71.84630657131437,
        "Longitude(deg)": -79.85416949735038,
        "Mean Anomaly(deg)": 286.95970030361184,
        "RAAN(deg)": 0.0043820395083763565,
        "Satellite Name": "Starlink Shell 3 1626",
        "Satellite Number": 1626,
        "Semi-Major Axis(m)": 6938478.169268562,
        "Time(s)": 420
    },
    {
        "Altitude(m)": 589856.6213904648,
        "Argument of Periapsis(deg)": -0.01705150725733006,
        "Eccentricity": 0.0,
        "Inclination(deg)": 97.0,
        "Latitude(deg)": -71.27311861833465,
        "Longitude(deg)": -80.64785096085336,
        "Mean Anomaly(deg)": 287.5851765013169,
        "RAAN(deg)": 0.004486373782385317,
        "Satellite Name": "Starlink Shell 3 1626",
        "Satellite Number": 1626,
        "Semi-Major Axis(m)": 6938478.169268562,
        "Time(s)": 430
    },
    {
        "Altitude(m)": 589718.3019483499,
        "Argument of Periapsis(deg)": -0.017448053937733084,
        "Eccentricity": 0.0,
        "Inclination(deg)": 97.0,
        "Latitude(deg)": -70.69705282306057,
        "Longitude(deg)": -81.39837608021446,
        "Mean Anomaly(deg)": 288.2106526990219,
        "RAAN(deg)": 0.004590708056394278,
        "Satellite Name": "Starlink Shell 3 1626",
        "Satellite Number": 1626,
        "Semi-Major Axis(m)": 6938478.169268562,
        "Time(s)": 440
    },
    {
        "Altitude(m)": 589575.7234505718,
        "Argument of Periapsis(deg)": -0.017844600618136107,
        "Eccentricity": 0.0,
        "Inclination(deg)": 97.0,
        "Latitude(deg)": -70.11835315018652,
        "Longitude(deg)": -82.10931127969596,
        "Mean Anomaly(deg)": 288.83612889672696,
        "RAAN(deg)": 0.0046950423304032395,
        "Satellite Name": "Starlink Shell 3 1626",
        "Satellite Number": 1626,
        "Semi-Major Axis(m)": 6938478.169268562,
        "Time(s)": 450
    },
    {
        "Altitude(m)": 589428.9434816982,
        "Argument of Periapsis(deg)": -0.018241147298539134,
        "Eccentricity": 0.0,
        "Inclination(deg)": 97.0,
        "Latitude(deg)": -69.5372368812777,
        "Longitude(deg)": -82.78386116506455,
        "Mean Anomaly(deg)": 289.461605094432,
        "RAAN(deg)": 0.0047993766044122,
        "Satellite Name": "Starlink Shell 3 1626",
        "Satellite Number": 1626,
        "Semi-Major Axis(m)": 6938478.169268562,
        "Time(s)": 460
    },
    {
        "Altitude(m)": 589278.0213112279,
        "Argument of Periapsis(deg)": -0.018637693978942157,
        "Eccentricity": 0.0,
        "Inclination(deg)": 97.0,
        "Latitude(deg)": -68.9538980252899,
        "Longitude(deg)": -83.42490999766783,
        "Mean Anomaly(deg)": 290.08708129213704,
        "RAAN(deg)": 0.00490371087842116,
        "Satellite Name": "Starlink Shell 3 1626",
        "Satellite Number": 1626,
        "Semi-Major Axis(m)": 6938478.169268562,
        "Time(s)": 470
    },
    {
        "Altitude(m)": 589123.0178682867,
        "Argument of Periapsis(deg)": -0.019034240659345183,
        "Eccentricity": 0.0,
        "Inclination(deg)": 97.0,
        "Latitude(deg)": -68.3685102396157,
        "Longitude(deg)": -84.03505943792634,
        "Mean Anomaly(deg)": 290.7125574898421,
        "RAAN(deg)": 0.0050080451524301215,
        "Satellite Name": "Starlink Shell 3 1626",
        "Satellite Number": 1626,
        "Semi-Major Axis(m)": 6938478.169268562,
        "Time(s)": 480
    },
    {
        "Altitude(m)": 588963.9957155721,
        "Argument of Periapsis(deg)": -0.019430787339748207,
        "Eccentricity": 0.0,
        "Inclination(deg)": 97.0,
        "Latitude(deg)": -67.7812293380578,
        "Longitude(deg)": -84.61666018793929,
        "Mean Anomaly(deg)": 291.3380336875471,
        "RAAN(deg)": 0.005112379426439082,
        "Satellite Name": "Starlink Shell 3 1626",
        "Satellite Number": 1626,
        "Semi-Major Axis(m)": 6938478.169268562,
        "Time(s)": 490
    },
    {
        "Altitude(m)": 588801.0190225623,
        "Argument of Periapsis(deg)": -0.019827334020151237,
        "Eccentricity": 0.0,
        "Inclination(deg)": 97.0,
        "Latitude(deg)": -67.19219544955827,
        "Longitude(deg)": -85.17183963158664,
        "Mean Anomaly(deg)": 291.96350988525217,
        "RAAN(deg)": 0.005216713700448044,
        "Satellite Name": "Starlink Shell 3 1626",
        "Satellite Number": 1626,
        "Semi-Major Axis(m)": 6938478.169268562,
        "Time(s)": 500
    },
    {
        "Altitude(m)": 588634.1535380402,
        "Argument of Periapsis(deg)": -0.020223880700554257,
        "Eccentricity": 0.0,
        "Inclination(deg)": 97.0,
        "Latitude(deg)": -66.60153488103992,
        "Longitude(deg)": -85.70252750238956,
        "Mean Anomaly(deg)": 292.5889860829572,
        "RAAN(deg)": 0.005321047974457004,
        "Satellite Name": "Starlink Shell 3 1626",
        "Satellite Number": 1626,
        "Semi-Major Axis(m)": 6938478.169268562,
        "Time(s)": 510
    },
    {
        "Altitude(m)": 588463.466561912,
        "Argument of Periapsis(deg)": -0.020620427380957283,
        "Eccentricity": 0.0,
        "Inclination(deg)": 97.0,
        "Latitude(deg)": -66.00936172901756,
        "Longitude(deg)": -86.21047700709418,
        "Mean Anomaly(deg)": 293.21446228066225,
        "RAAN(deg)": 0.005425382248465965,
        "Satellite Name": "Starlink Shell 3 1626",
        "Satellite Number": 1626,
        "Semi-Major Axis(m)": 6938478.169268562,
        "Time(s)": 520
    },
    {
        "Altitude(m)": 588289.0269162802,
        "Argument of Periapsis(deg)": -0.021016974061360306,
        "Eccentricity": 0.0,
        "Inclination(deg)": 97.0,
        "Latitude(deg)": -65.41577927740246,
        "Longitude(deg)": -86.69728331364561,
        "Mean Anomaly(deg)": 293.83993847836734,
        "RAAN(deg)": 0.005529716522474927,
        "Satellite Name": "Starlink Shell 3 1626",
        "Satellite Number": 1626,
        "Semi-Major Axis(m)": 6938478.169268562,
        "Time(s)": 530
    },
    {
        "Altitude(m)": 588110.9049159131,
        "Argument of Periapsis(deg)": -0.021413520741763333,
        "Eccentricity": 0.0,
        "Inclination(deg)": 97.0,
        "Latitude(deg)": -64.82088121292048,
        "Longitude(deg)": -87.16440126040185,
        "Mean Anomaly(deg)": 294.4654146760724,
        "RAAN(deg)": 0.005634050796483887,
        "Satellite Name": "Starlink Shell 3 1626",
        "Satellite Number": 1626,
        "Semi-Major Axis(m)": 6938478.169268562,
        "Time(s)": 540
    },
    {
        "Altitude(m)": 587929.1723379735,
        "Argument of Periapsis(deg)": -0.021810067422166356,
        "Eccentricity": 0.0,
        "Inclination(deg)": 97.0,
        "Latitude(deg)": -64.22475268457222,
        "Longitude(deg)": -87.61315955902909,
        "Mean Anomaly(deg)": 295.09089087377737,
        "RAAN(deg)": 0.005738385070492848,
        "Satellite Name": "Starlink Shell 3 1626",
        "Satellite Number": 1626,
        "Semi-Major Axis(m)": 6938478.169268562,
        "Time(s)": 550
    },
    {
        "Altitude(m)": 587743.9023911278,
        "Argument of Periapsis(deg)": -0.022206614102569383,
        "Eccentricity": 0.0,
        "Inclination(deg)": 97.0,
        "Latitude(deg)": -63.6274712294095,
        "Longitude(deg)": -88.04477326208077,
        "Mean Anomaly(deg)": 295.71636707148247,
        "RAAN(deg)": 0.005842719344501809,
        "Satellite Name": "Starlink Shell 3 1626",
        "Satellite Number": 1626,
        "Semi-Major Axis(m)": 6938478.169268562,
        "Time(s)": 560
    }
]